{
  "type": "FeatureCollection",
  "features": [
    {
      "type": "Feature",
      "properties": {
        "norad_id": 36036,
        "name": "SMOS",
        "group": "resource",
        "lat": 66.33243135154734,
        "lon": 10.159651894166995,
        "alt_km": 752.1835438144208,
        "timestamp": "2025-12-11T07:02:23.390483+00:00",
        "meta_object_name": "SMOS",
        "meta_object_id": "2009-059A",
        "meta_epoch": "2025-12-10T22:10:52.270176",
        "meta_mean_motion": 14.39738717,
        "meta_eccentricity": 0.00011001,
        "meta_inclination": 98.4381,
        "meta_ra_of_asc_node": 169.9995,
        "meta_arg_of_pericenter": 84.8579,
        "meta_mean_anomaly": 275.2734,
        "meta_ephemeris_type": 0,
        "meta_classification_type": "U",
        "meta_norad_cat_id": 36036,
        "meta_element_set_no": 999,
        "meta_rev_at_epoch": 84636,
        "meta_bstar": 0.0002034749,
        "meta_mean_motion_dot": 5.94e-06,
        "meta_mean_motion_ddot": 0,
        "tle_line1": "1 36036U 09059A   25344.92421609  .00000594  00000+0  20347-3 0  9998",
        "tle_line2": "2 36036  98.4381 169.9995 0001100  84.8579 275.2734 14.39738717846361"
      },
      "geometry": {
        "type": "Point",
        "coordinates": [
          10.159651894166995,
          66.33243135154734
        ]
      }
    },
    {
      "type": "Feature",
      "properties": {
        "norad_id": 36110,
        "name": "YAOGAN-7",
        "group": "resource",
        "lat": 77.47051688711778,
        "lon": 86.49351978845739,
        "alt_km": 645.5421424229507,
        "timestamp": "2025-12-11T07:02:23.390494+00:00",
        "meta_object_name": "YAOGAN-7",
        "meta_object_id": "2009-069A",
        "meta_epoch": "2025-12-10T22:27:50.892480",
        "meta_mean_motion": 14.77728134,
        "meta_eccentricity": 0.00234141,
        "meta_inclination": 98.0302,
        "meta_ra_of_asc_node": 226.6995,
        "meta_arg_of_pericenter": 287.4404,
        "meta_mean_anomaly": 72.4246,
        "meta_ephemeris_type": 0,
        "meta_classification_type": "U",
        "meta_norad_cat_id": 36110,
        "meta_element_set_no": 999,
        "meta_rev_at_epoch": 86182,
        "meta_bstar": 0.00015314371,
        "meta_mean_motion_dot": 1.049e-05,
        "meta_mean_motion_ddot": 0,
        "tle_line1": "1 36110U 09069A   25344.93600570  .00001049  00000+0  15314-3 0  9993",
        "tle_line2": "2 36110  98.0302 226.6995 0023414 287.4404  72.4246 14.77728134861821"
      },
      "geometry": {
        "type": "Point",
        "coordinates": [
          86.49351978845739,
          77.47051688711778
        ]
      }
    },
    {
      "type": "Feature",
      "properties": {
        "norad_id": 36605,
        "name": "TANDEM-X",
        "group": "resource",
        "lat": 49.33479481742566,
        "lon": 179.4502358409642,
        "alt_km": 503.112205897849,
        "timestamp": "2025-12-11T07:02:23.390509+00:00",
        "meta_object_name": "TANDEM-X",
        "meta_object_id": "2010-030A",
        "meta_epoch": "2025-12-10T13:04:49.497312",
        "meta_mean_motion": 15.19152954,
        "meta_eccentricity": 0.0001855,
        "meta_inclination": 97.4451,
        "meta_ra_of_asc_node": 349.9572,
        "meta_arg_of_pericenter": 84.2987,
        "meta_mean_anomaly": 275.8459,
        "meta_ephemeris_type": 0,
        "meta_classification_type": "U",
        "meta_norad_cat_id": 36605,
        "meta_element_set_no": 999,
        "meta_rev_at_epoch": 85800,
        "meta_bstar": 0.00014449,
        "meta_mean_motion_dot": 2.969e-05,
        "meta_mean_motion_ddot": 0,
        "tle_line1": "1 36605U 10030A   25344.54501733  .00002969  00000+0  14449-3 0  9990",
        "tle_line2": "2 36605  97.4451 349.9572 0001855  84.2987 275.8459 15.19152954858001"
      },
      "geometry": {
        "type": "Point",
        "coordinates": [
          179.4502358409642,
          49.33479481742566
        ]
      }
    },
    {
      "type": "Feature",
      "properties": {
        "norad_id": 36795,
        "name": "CARTOSAT-2B",
        "group": "resource",
        "lat": 21.406263842144075,
        "lon": 31.296009176683725,
        "alt_km": 628.4699370918815,
        "timestamp": "2025-12-11T07:02:23.390519+00:00",
        "meta_object_name": "CARTOSAT-2B",
        "meta_object_id": "2010-035A",
        "meta_epoch": "2025-12-10T22:49:21.843264",
        "meta_mean_motion": 14.78783295,
        "meta_eccentricity": 0.00129314,
        "meta_inclination": 97.785,
        "meta_ra_of_asc_node": 34.0391,
        "meta_arg_of_pericenter": 82.6288,
        "meta_mean_anomaly": 277.6392,
        "meta_ephemeris_type": 0,
        "meta_classification_type": "U",
        "meta_norad_cat_id": 36795,
        "meta_element_set_no": 999,
        "meta_rev_at_epoch": 83203,
        "meta_bstar": 8.690684e-05,
        "meta_mean_motion_dot": 5.89e-06,
        "meta_mean_motion_ddot": 0,
        "tle_line1": "1 36795U 10035A   25344.95094726  .00000589  00000+0  86907-4 0  9994",
        "tle_line2": "2 36795  97.7850  34.0391 0012931  82.6288 277.6392 14.78783295832034"
      },
      "geometry": {
        "type": "Point",
        "coordinates": [
          31.296009176683725,
          21.406263842144075
        ]
      }
    },
    {
      "type": "Feature",
      "properties": {
        "norad_id": 36834,
        "name": "YAOGAN-10",
        "group": "resource",
        "lat": 69.86223438316861,
        "lon": -17.170420543375595,
        "alt_km": 607.083023857248,
        "timestamp": "2025-12-11T07:02:23.390530+00:00",
        "meta_object_name": "YAOGAN-10",
        "meta_object_id": "2010-038A",
        "meta_epoch": "2025-12-11T00:31:01.439616",
        "meta_mean_motion": 14.84597048,
        "meta_eccentricity": 0.00014558,
        "meta_inclination": 97.9145,
        "meta_ra_of_asc_node": 4.8545,
        "meta_arg_of_pericenter": 85.0752,
        "meta_mean_anomaly": 334.7239,
        "meta_ephemeris_type": 0,
        "meta_classification_type": "U",
        "meta_norad_cat_id": 36834,
        "meta_element_set_no": 999,
        "meta_rev_at_epoch": 82928,
        "meta_bstar": 0.0004708923,
        "meta_mean_motion_dot": 3.924e-05,
        "meta_mean_motion_ddot": 0,
        "tle_line1": "1 36834U 10038A   25345.02154444  .00003924  00000+0  47089-3 0  9997",
        "tle_line2": "2 36834  97.9145   4.8545 0001455  85.0752 334.7239 14.84597048829289"
      },
      "geometry": {
        "type": "Point",
        "coordinates": [
          -17.170420543375595,
          69.86223438316861
        ]
      }
    },
    {
      "type": "Feature",
      "properties": {
        "norad_id": 37216,
        "name": "COSMO-SKYMED 4",
        "group": "resource",
        "lat": 7.128436666466416,
        "lon": 165.64562466414094,
        "alt_km": 624.1933257701248,
        "timestamp": "2025-12-11T07:02:23.390540+00:00",
        "meta_object_name": "COSMO-SKYMED 4",
        "meta_object_id": "2010-060A",
        "meta_epoch": "2025-12-10T22:54:22.546368",
        "meta_mean_motion": 14.82167901,
        "meta_eccentricity": 0.00014289,
        "meta_inclination": 97.8807,
        "meta_ra_of_asc_node": 166.3045,
        "meta_arg_of_pericenter": 78.4819,
        "meta_mean_anomaly": 281.6554,
        "meta_ephemeris_type": 0,
        "meta_classification_type": "U",
        "meta_norad_cat_id": 37216,
        "meta_element_set_no": 999,
        "meta_rev_at_epoch": 81668,
        "meta_bstar": 0.00019324512,
        "meta_mean_motion_dot": 1.487e-05,
        "meta_mean_motion_ddot": 0,
        "tle_line1": "1 37216U 10060A   25344.95442762  .00001487  00000+0  19325-3 0  9995",
        "tle_line2": "2 37216  97.8807 166.3045 0001428  78.4819 281.6554 14.82167901816686"
      },
      "geometry": {
        "type": "Point",
        "coordinates": [
          165.64562466414094,
          7.128436666466416
        ]
      }
    },
    {
      "type": "Feature",
      "properties": {
        "norad_id": 37387,
        "name": "RESOURCESAT-2",
        "group": "resource",
        "lat": -70.91008204834294,
        "lon": 75.40124870716402,
        "alt_km": 829.5069975562865,
        "timestamp": "2025-12-11T07:02:23.390550+00:00",
        "meta_object_name": "RESOURCESAT-2",
        "meta_object_id": "2011-015A",
        "meta_epoch": "2025-12-10T21:14:50.889408",
        "meta_mean_motion": 14.21596008,
        "meta_eccentricity": 0.00065226,
        "meta_inclination": 98.7879,
        "meta_ra_of_asc_node": 48.4454,
        "meta_arg_of_pericenter": 47.4184,
        "meta_mean_anomaly": 312.7543,
        "meta_ephemeris_type": 0,
        "meta_classification_type": "U",
        "meta_norad_cat_id": 37387,
        "meta_element_set_no": 999,
        "meta_rev_at_epoch": 75942,
        "meta_bstar": 0.00012128818,
        "meta_mean_motion_dot": 2.21e-06,
        "meta_mean_motion_ddot": 0,
        "tle_line1": "1 37387U 11015A   25344.88531122  .00000221  00000+0  12129-3 0  9996",
        "tle_line2": "2 37387  98.7879  48.4454 0006522  47.4184 312.7543 14.21596008759428"
      },
      "geometry": {
        "type": "Point",
        "coordinates": [
          75.40124870716402,
          -70.91008204834294
        ]
      }
    }
  ]
}